CCSDS_OMM_VERS = 2.0
CREATION_DATE  = 
ORIGINATOR     = 

OBJECT_NAME    = SOYUZ-MS 28
OBJECT_ID      = 2025-275A
CENTER_NAME    = EARTH
REF_FRAME      = TEME
TIME_SYSTEM    = UTC
MEAN_ELEMENT_THEORY = SGP/SGP4

EPOCH          = 2025-12-31T18:12:28.222272
MEAN_MOTION    = 15.48982944
ECCENTRICITY   = .0007527
INCLINATION    = 51.6330
RA_OF_ASC_NODE = 48.2919
ARG_OF_PERICENTER = 325.0385
MEAN_ANOMALY   = 35.0108

EPHEMERIS_TYPE = 0
CLASSIFICATION_TYPE = U
NORAD_CAT_ID   = 66664
ELEMENT_SET_NO = 999
REV_AT_EPOCH   = 54580
BSTAR          = .28223E-3
MEAN_MOTION_DOT = .15131E-3
MEAN_MOTION_DDOT = 0

CCSDS_OMM_VERS = 2.0
CREATION_DATE  = 
ORIGINATOR     = 

OBJECT_NAME    = 1998-067XS
OBJECT_ID      = 1998-067XS
CENTER_NAME    = EARTH
REF_FRAME      = TEME
TIME_SYSTEM    = UTC
MEAN_ELEMENT_THEORY = SGP/SGP4

EPOCH          = 2025-12-31T14:33:46.847808
MEAN_MOTION    = 15.51682715
ECCENTRICITY   = .0002537
INCLINATION    = 51.6322
RA_OF_ASC_NODE = 48.7786
ARG_OF_PERICENTER = 301.8900
MEAN_ANOMALY   = 58.1843

EPHEMERIS_TYPE = 0
CLASSIFICATION_TYPE = U
NORAD_CAT_ID   = 66906
ELEMENT_SET_NO = 999
REV_AT_EPOCH   = 454
BSTAR          = .63117878E-3
MEAN_MOTION_DOT = .37966E-3
MEAN_MOTION_DDOT = 0

CCSDS_OMM_VERS = 2.0
CREATION_DATE  = 
ORIGINATOR     = 

OBJECT_NAME    = 1998-067XT
OBJECT_ID      = 1998-067XT
CENTER_NAME    = EARTH
REF_FRAME      = TEME
TIME_SYSTEM    = UTC
MEAN_ELEMENT_THEORY = SGP/SGP4

EPOCH          = 2025-12-31T12:29:58.009056
MEAN_MOTION    = 15.54068826
ECCENTRICITY   = .00038383
INCLINATION    = 51.6318
RA_OF_ASC_NODE = 48.9544
ARG_OF_PERICENTER = 343.4521
MEAN_ANOMALY   = 16.6344

EPHEMERIS_TYPE = 0
CLASSIFICATION_TYPE = U
NORAD_CAT_ID   = 66907
ELEMENT_SET_NO = 999
REV_AT_EPOCH   = 453
BSTAR          = .14362804E-2
MEAN_MOTION_DOT = .95558E-3
MEAN_MOTION_DDOT = 0

CCSDS_OMM_VERS = 2.0
CREATION_DATE  = 
ORIGINATOR     = 

OBJECT_NAME    = 1998-067XU
OBJECT_ID      = 1998-067XU
CENTER_NAME    = EARTH
REF_FRAME      = TEME
TIME_SYSTEM    = UTC
MEAN_ELEMENT_THEORY = SGP/SGP4

EPOCH          = 2026-01-01T03:54:18.024768
MEAN_MOTION    = 15.54148356
ECCENTRICITY   = .0004023
INCLINATION    = 51.6307
RA_OF_ASC_NODE = 45.7409
ARG_OF_PERICENTER = 343.3753
MEAN_ANOMALY   = 16.7105

EPHEMERIS_TYPE = 0
CLASSIFICATION_TYPE = U
NORAD_CAT_ID   = 66908
ELEMENT_SET_NO = 999
REV_AT_EPOCH   = 463
BSTAR          = .1354E-2
MEAN_MOTION_DOT = .90261E-3
MEAN_MOTION_DDOT = 0

CCSDS_OMM_VERS = 2.0
CREATION_DATE  = 
ORIGINATOR     = 

OBJECT_NAME    = SILVERSAT
OBJECT_ID      = 1998-067XV
CENTER_NAME    = EARTH
REF_FRAME      = TEME
TIME_SYSTEM    = UTC
MEAN_ELEMENT_THEORY = SGP/SGP4

EPOCH          = 2026-01-01T03:49:34.053024
MEAN_MOTION    = 15.54635704
ECCENTRICITY   = .0004094
INCLINATION    = 51.6304
RA_OF_ASC_NODE = 45.7192
ARG_OF_PERICENTER = 351.0706
MEAN_ANOMALY   = 9.0212

EPHEMERIS_TYPE = 0
CLASSIFICATION_TYPE = U
NORAD_CAT_ID   = 66909
ELEMENT_SET_NO = 999
REV_AT_EPOCH   = 463
BSTAR          = .15528E-2
MEAN_MOTION_DOT = .105655E-2
MEAN_MOTION_DDOT = 0

CCSDS_OMM_VERS = 2.0
CREATION_DATE  = 
ORIGINATOR     = 

OBJECT_NAME    = 1998-067XW
OBJECT_ID      = 1998-067XW
CENTER_NAME    = EARTH
REF_FRAME      = TEME
TIME_SYSTEM    = UTC
MEAN_ELEMENT_THEORY = SGP/SGP4

EPOCH          = 2025-12-31T09:17:05.980128
MEAN_MOTION    = 15.54288814
ECCENTRICITY   = .00034471
INCLINATION    = 51.6314
RA_OF_ASC_NODE = 49.5599
ARG_OF_PERICENTER = 316.7976
MEAN_ANOMALY   = 43.2743

EPHEMERIS_TYPE = 0
CLASSIFICATION_TYPE = U
NORAD_CAT_ID   = 66910
ELEMENT_SET_NO = 999
REV_AT_EPOCH   = 451
BSTAR          = .13891514E-2
MEAN_MOTION_DOT = .93121E-3
MEAN_MOTION_DDOT = 0

CCSDS_OMM_VERS = 2.0
CREATION_DATE  = 
ORIGINATOR     = 

OBJECT_NAME    = 1998-067XX
OBJECT_ID      = 1998-067XX
CENTER_NAME    = EARTH
REF_FRAME      = TEME
TIME_SYSTEM    = UTC
MEAN_ELEMENT_THEORY = SGP/SGP4

EPOCH          = 2025-12-31T09:07:57.753984
MEAN_MOTION    = 15.55033456
ECCENTRICITY   = .00032046
INCLINATION    = 51.6318
RA_OF_ASC_NODE = 49.5181
ARG_OF_PERICENTER = 330.0387
MEAN_ANOMALY   = 30.0420

EPHEMERIS_TYPE = 0
CLASSIFICATION_TYPE = U
NORAD_CAT_ID   = 66911
ELEMENT_SET_NO = 999
REV_AT_EPOCH   = 450
BSTAR          = .16210746E-2
MEAN_MOTION_DOT = .112028E-2
MEAN_MOTION_DDOT = 0

CCSDS_OMM_VERS = 2.0
CREATION_DATE  = 
ORIGINATOR     = 

OBJECT_NAME    = 1998-067XY
OBJECT_ID      = 1998-067XY
CENTER_NAME    = EARTH
REF_FRAME      = TEME
TIME_SYSTEM    = UTC
MEAN_ELEMENT_THEORY = SGP/SGP4

EPOCH          = 2026-01-01T02:35:05.388000
MEAN_MOTION    = 15.53272395
ECCENTRICITY   = .0003819
INCLINATION    = 51.6323
RA_OF_ASC_NODE = 46.1248
ARG_OF_PERICENTER = 335.3883
MEAN_ANOMALY   = 24.6925

EPHEMERIS_TYPE = 0
CLASSIFICATION_TYPE = U
NORAD_CAT_ID   = 66912
ELEMENT_SET_NO = 999
REV_AT_EPOCH   = 461
BSTAR          = .11572E-2
MEAN_MOTION_DOT = .74494E-3
MEAN_MOTION_DDOT = 0

